OBJECT_NAME,OBJECT_ID,EPOCH,MEAN_MOTION,ECCENTRICITY,INCLINATION,RA_OF_ASC_NODE,ARG_OF_PERICENTER,MEAN_ANOMALY,EPHEMERIS_TYPE,CLASSIFICATION_TYPE,NORAD_CAT_ID,ELEMENT_SET_NO,REV_AT_EPOCH,BSTAR,MEAN_MOTION_DOT,MEAN_MOTION_DDOT
CHINASAT 9B,2021-080A,2026-07-20T20:27:13.908384,1.00276281,.0002836,0.0467,244.1622,250.4360,212.2394,0,U,49125,999,1798,0,-.313E-5,0
SHIJIAN-21 (SJ-21),2021-094A,2026-07-20T18:25:46.858080,1.00275850,.005148,5.1905,60.9747,168.8916,113.1142,0,U,49330,999,569,0,-.351E-5,0
SES-17,2021-095A,2026-07-20T17:56:34.977120,1.00269790,.0001032,0.0241,52.6688,59.2841,28.6033,0,U,49332,999,1819,0,-.273E-5,0
SYRACUSE 4A,2021-095B,2026-07-20T20:11:20.573376,1.00270700,.0001519,0.0201,61.2411,54.8858,170.8290,0,U,49333,999,1828,0,0,0
QZS-1R (MICHIBIKI-1R),2021-096A,2026-07-19T13:27:51.734016,1.00244085,.07555125,37.5263,79.1015,272.3091,279.1178,0,U,49336,999,1733,0,-.322E-5,0
ZHONGXING-1D,2021-114A,2026-07-20T20:35:28.118976,1.00273913,.0000428,0.0198,227.0098,90.0978,60.5364,0,U,49505,999,1715,0,-.336E-5,0
STPSAT-6,2021-118A,2026-07-20T14:18:32.715936,1.00270972,.000086,0.4049,85.0966,255.3975,60.6970,0,U,49817,999,1690,0,-.46E-6,0
EXPRESS AMU-7,2021-123A,2026-07-20T03:32:59.847360,1.00272331,.00003942,0.0183,305.3932,6.5699,184.2146,0,U,50001,999,1687,0,-.245E-5,0
EXPRESS AMU-3,2021-123B,2026-07-19T21:17:42.472032,1.00267792,.000032,0.0122,348.0485,24.0541,347.8982,0,U,50002,999,736,0,0,0
TIANLIAN 2-02,2021-124A,2026-07-20T19:04:26.184000,1.00271965,.0001476,0.8868,85.6157,158.1138,151.8960,0,U,50005,999,1695,0,-.15E-6,0
TURKSAT 5B,2021-126A,2026-07-20T20:10:20.667936,1.00271594,.0002236,0.0708,338.1532,18.4787,286.5451,0,U,50212,999,1663,0,.146E-5,0
INMARSAT 6-F1,2021-128A,2026-07-20T18:39:36.064800,1.00270041,.0000325,0.0184,48.3613,40.9361,212.9078,0,U,50319,999,1659,0,0,0
SHIYAN-12 01 (SY-12 01),2021-129A,2026-07-20T16:42:27.036864,1.00054594,.000261,3.7589,79.4595,291.2517,211.3051,0,U,50321,999,1683,0,.141E-5,0
SHIYAN-12 02 (SY-12 02),2021-129B,2026-07-20T17:55:26.868000,1.00474917,.0003227,3.7581,79.4582,67.0799,175.2893,0,U,50322,999,1683,0,-.365E-5,0
TJS-9,2021-135A,2026-07-20T20:37:27.927264,1.00270558,.0002251,0.0594,100.4606,333.6253,311.1511,0,U,50574,999,1676,0,-.299E-5,0
GOES 18,2022-021A,2026-07-20T17:36:21.915072,1.00270960,.0000372,0.0160,142.8122,11.9765,270.7972,0,U,51850,999,692,0,.96E-6,0
ZHONGXING-6D,2022-038A,2026-07-19T19:49:46.791264,1.00267596,.00007886,0.0045,101.1810,94.3887,164.4279,0,U,52255,999,1575,0,0,0
NILESAT 301,2022-061A,2026-07-20T14:48:22.357152,1.00270573,.0003647,0.0467,14.5798,69.3169,69.5699,0,U,52817,999,1507,0,-.59E-6,0
CMS-02 (GSAT-24),2022-067A,2026-07-20T20:21:59.409792,1.00272771,.0000828,0.0535,248.7512,116.2153,322.1351,0,U,52903,999,1494,0,-.165E-5,0
MEASAT 3D,2022-067B,2026-07-20T20:24:29.172096,1.00270259,.00005,0.0331,334.0624,69.5243,292.6421,0,U,52904,999,1498,0,-.241E-5,0
SES-22,2022-071A,2026-07-20T17:36:06.939360,1.00273780,.0001011,0.0395,256.7873,213.4862,313.2522,0,U,52933,999,785,0,.104E-5,0
WFOV (USA 332),2022-073A,2026-07-20T17:07:02.227008,1.00275014,.0000928,3.7948,78.1046,184.9130,51.5188,0,U,52940,999,1470,0,-.365E-5,0
TIANLIAN 2-03,2022-078A,2026-07-20T20:50:38.622048,1.00269737,.000073,0.7539,77.5386,23.3546,161.0137,0,U,53100,999,1488,0,.71E-6,0
SBIRS GEO-6 (USA 336),2022-092A,2026-07-20T20:37:57.877824,1.00271675,.0001919,3.2018,318.0525,155.1191,273.9426,0,U,53355,999,1457,0,-.29E-5,0
EUTELSAT KONNECT VHTS,2022-110A,2026-07-20T19:59:05.941824,1.00271053,.0002882,0.0566,99.7645,350.0890,151.2196,0,U,53765,999,717,0,.17E-6,0
ZHONGXING-1E,2022-112A,2026-07-20T15:13:32.670624,1.00272597,.0000673,0.0465,235.8643,31.1304,341.2092,0,U,53813,999,1418,0,-.15E-5,0
SES-20,2022-123A,2026-07-20T14:21:02.477376,1.00269975,.000205,0.0156,71.1532,22.6306,316.7335,0,U,53960,999,1386,0,-.102E-5,0
SES-21,2022-123B,2026-07-20T15:55:43.628160,1.00271272,.0000931,0.0224,31.6998,92.6686,282.0107,0,U,53961,999,754,0,.68E-6,0
GALAXY 33 (G-33),2022-128A,2026-07-20T17:37:44.282784,1.00275650,.0001801,0.0184,315.6670,166.6525,307.6068,0,U,54026,999,1407,0,.78E-6,0
GALAXY 34 (G-34),2022-128B,2026-07-20T15:56:13.578720,1.00274627,.0001858,0.0167,50.8823,70.9665,286.6531,0,U,54027,999,1424,0,0,0
ANGOSAT 2,2022-131A,2026-07-20T20:42:38.682144,1.00272768,.0000145,0.0176,141.6980,326.9085,163.6805,0,U,54033,999,1381,0,.135E-5,0
EUTELSAT HOTBIRD 13F,2022-134A,2026-07-20T20:02:05.653824,1.00272138,.0001937,0.0536,282.6435,79.9844,249.5064,0,U,54048,999,1371,0,.87E-6,0
