CHINASAT 9B             
1 49125U 21080A   26201.85224431 -.00000313  00000+0  00000+0 0  9998
2 49125   0.0467 244.1622 0002836 250.4360 212.2394  1.00276281 17985
SHIJIAN-21 (SJ-21)      
1 49330U 21094A   26201.76790345 -.00000351  00000+0  00000+0 0  9995
2 49330   5.1905  60.9747 0051480 168.8916 113.1142  1.00275850  5692
SES-17                  
1 49332U 21095A   26201.74762705 -.00000273  00000+0  00000+0 0  9998
2 49332   0.0241  52.6688 0001032  59.2841  28.6033  1.00269790 18195
SYRACUSE 4A             
1 49333U 21095B   26201.84121034  .00000000  00000+0  00000+0 0  9991
2 49333   0.0201  61.2411 0001519  54.8858 170.8290  1.00270700 18289
QZS-1R (MICHIBIKI-1R)   
1 49336U 21096A   26200.56101544 -.00000322  00000+0  00000+0 0  9995
2 49336  37.5263  79.1015 0755512 272.3091 279.1178  1.00244085 17338
ZHONGXING-1D            
1 49505U 21114A   26201.85796434 -.00000336  00000+0  00000+0 0  9990
2 49505   0.0198 227.0098 0000428  90.0978  60.5364  1.00273913 17152
STPSAT-6                
1 49817U 21118A   26201.59621199 -.00000046  00000+0  00000+0 0  9994
2 49817   0.4049  85.0966 0000860 255.3975  60.6970  1.00270972 16904
EXPRESS AMU-7           
1 50001U 21123A   26201.14791490 -.00000245  00000+0  00000+0 0  9991
2 50001   0.0183 305.3932 0000394   6.5699 184.2146  1.00272331 16873
EXPRESS AMU-3           
1 50002U 21123B   26200.88729713  .00000000  00000+0  00000+0 0  9999
2 50002   0.0122 348.0485 0000320  24.0541 347.8982  1.00267792  7368
TIANLIAN 2-02           
1 50005U 21124A   26201.79474750 -.00000015  00000+0  00000+0 0  9999
2 50005   0.8868  85.6157 0001476 158.1138 151.8960  1.00271965 16951
TURKSAT 5B              
1 50212U 21126A   26201.84051699  .00000146  00000+0  00000+0 0  9994
2 50212   0.0708 338.1532 0002236  18.4787 286.5451  1.00271594 16636
INMARSAT 6-F1           
1 50319U 21128A   26201.77750075  .00000000  00000+0  00000+0 0  9999
2 50319   0.0184  48.3613 0000325  40.9361 212.9078  1.00270041 16596
SHIYAN-12 01 (SY-12 01) 
1 50321U 21129A   26201.69614626  .00000141  00000+0  00000+0 0  9991
2 50321   3.7589  79.4595 0002610 291.2517 211.3051  1.00054594 16839
SHIYAN-12 02 (SY-12 02) 
1 50322U 21129B   26201.74683875 -.00000365  00000+0  00000+0 0  9999
2 50322   3.7581  79.4582 0003227  67.0799 175.2893  1.00474917 16831
TJS-9                   
1 50574U 21135A   26201.85935101 -.00000299  00000+0  00000+0 0  9995
2 50574   0.0594 100.4606 0002251 333.6253 311.1511  1.00270558 16764
GOES 18                 
1 51850U 22021A   26201.73358698  .00000096  00000+0  00000+0 0  9999
2 51850   0.0160 142.8122 0000372  11.9765 270.7972  1.00270960  6925
ZHONGXING-6D            
1 52255U 22038A   26200.82623601  .00000000  00000+0  00000+0 0  9990
2 52255   0.0045 101.1810 0000788  94.3887 164.4279  1.00267596 15751
NILESAT 301             
1 52817U 22061A   26201.61692543 -.00000059  00000+0  00000+0 0  9994
2 52817   0.0467  14.5798 0003647  69.3169  69.5699  1.00270573 15072
CMS-02 (GSAT-24)        
1 52903U 22067A   26201.84860428 -.00000165  00000+0  00000+0 0  9998
2 52903   0.0535 248.7512 0000828 116.2153 322.1351  1.00272771 14942
MEASAT 3D               
1 52904U 22067B   26201.85033764 -.00000241  00000+0  00000+0 0  9990
2 52904   0.0331 334.0624 0000500  69.5243 292.6421  1.00270259 14989
SES-22                  
1 52933U 22071A   26201.73341365  .00000104  00000+0  00000+0 0  9990
2 52933   0.0395 256.7873 0001011 213.4862 313.2522  1.00273780  7854
WFOV (USA 332)          
1 52940U 22073A   26201.71322022 -.00000365  00000+0  00000+0 0  9997
2 52940   3.7948  78.1046 0000928 184.9130  51.5188  1.00275014 14704
TIANLIAN 2-03           
1 53100U 22078A   26201.86850257  .00000071  00000+0  00000+0 0  9996
2 53100   0.7539  77.5386 0000730  23.3546 161.0137  1.00269737 14889
SBIRS GEO-6 (USA 336)   
1 53355U 22092A   26201.85969766 -.00000290  00000+0  00000+0 0  9993
2 53355   3.2018 318.0525 0001919 155.1191 273.9426  1.00271675 14573
EUTELSAT KONNECT VHTS   
1 53765U 22110A   26201.83270766  .00000017  00000+0  00000+0 0  9998
2 53765   0.0566  99.7645 0002882 350.0890 151.2196  1.00271053  7179
ZHONGXING-1E            
1 53813U 22112A   26201.63440591 -.00000150  00000+0  00000+0 0  9996
2 53813   0.0465 235.8643 0000673  31.1304 341.2092  1.00272597 14184
SES-20                  
1 53960U 22123A   26201.59794534 -.00000102  00000+0  00000+0 0  9992
2 53960   0.0156  71.1532 0002050  22.6306 316.7335  1.00269975 13867
SES-21                  
1 53961U 22123B   26201.66369940  .00000068  00000+0  00000+0 0  9990
2 53961   0.0224  31.6998 0000931  92.6686 282.0107  1.00271272  7548
GALAXY 33 (G-33)        
1 54026U 22128A   26201.73454031  .00000078  00000+0  00000+0 0  9993
2 54026   0.0184 315.6670 0001801 166.6525 307.6068  1.00275650 14079
GALAXY 34 (G-34)        
1 54027U 22128B   26201.66404605  .00000000  00000+0  00000+0 0  9993
2 54027   0.0167  50.8823 0001858  70.9665 286.6531  1.00274627 14246
ANGOSAT 2               
1 54033U 22131A   26201.86294771  .00000135  00000+0  00000+0 0  9996
2 54033   0.0176 141.6980 0000145 326.9085 163.6805  1.00272768 13818
EUTELSAT HOTBIRD 13F    
1 54048U 22134A   26201.83478766  .00000087  00000+0  00000+0 0  9996
2 54048   0.0536 282.6435 0001937  79.9844 249.5064  1.00272138 13714
